NORAD_CAT_ID,OBJECT_NAME,OBJECT_TYPE,EPOCH,MEAN_MOTION,ECCENTRICITY,INCLINATION,RA_OF_ASC_NODE,ARG_OF_PERICENTER,MEAN_ANOMALY,BSTAR,MEAN_MOTION_DOT,MEAN_MOTION_DDOT,TLE_LINE0,TLE_LINE1,TLE_LINE2,SEMIMAJOR_AXIS,PERIOD,APOGEE,PERIGEE,DECAYED
55946.0,STARLINK-5857,PAYLOAD,2023-05-06 04:00:17,15.69924399,0.0004071,69.9989,42.1814,265.2508,94.8223,5.6262e-06,4.63e-06,0.0,0 STARLINK-5857,1 55946U 23037AJ  23126.16686427  .00000463  00000-0  56262-5 0  9997,2 55946  69.9989  42.1814 0004071 265.2508  94.8223 15.69924399  7946,6737.25,91.724,361.858,356.373,0.0
55946.0,STARLINK-5857,PAYLOAD,2023-05-06 20:49:33,15.69927348,0.0003996,69.9986,40.2104,269.2886,90.7852,1.5549e-06,-2.6e-07,0.0,0 STARLINK-5857,1 55946U 23037AJ  23126.86774801 -.00000026  00000-0  15549-5 0  9997,2 55946  69.9986  40.2104 0003996 269.2886  90.7852 15.69927348  8392,6737.242,91.724,361.799,356.415,0.0
55946.0,STARLINK-5857,PAYLOAD,2023-05-07 04:28:18,15.69931482,0.0003869,69.9994,39.3149,270.3812,89.6941,7.1107e-06,6.42e-06,0.0,0 STARLINK-5857,1 55946U 23037AJ  23127.18632791  .00000642  00000-0  71107-5 0  9999,2 55946  69.9994  39.3149 0003869 270.3812  89.6941 15.69931482  8109,6737.23,91.724,361.702,356.488,0.0
55946.0,STARLINK-5857,PAYLOAD,2023-05-07 21:17:35,15.69916531,0.0003475,69.9997,37.3423,267.0494,93.0304,1.0572e-05,1.058e-05,0.0,0 STARLINK-5857,1 55946U 23037AJ  23127.88722133  .00001058  00000-0  10572-4 0  9996,2 55946  69.9997  37.3423 0003475 267.0494  93.0304 15.69916531  8556,6737.273,91.725,361.479,356.797,0.0
55946.0,STARLINK-5857,PAYLOAD,2023-05-08 03:24:35,15.69932853,0.0003678,69.9992,36.6265,266.8633,93.2142,2.6603e-05,2.988e-05,0.0,0 STARLINK-5857,1 55946U 23037AJ  23128.14207565  .00002988  00000-0  26603-4 0  9998,2 55946  69.9992  36.6265 0003678 266.8633  93.2142 15.69932853  8595,6737.226,91.724,361.569,356.613,0.0
55946.0,STARLINK-5857,PAYLOAD,2023-05-08 11:03:21,15.69921192,0.0003138,70.0004,35.7325,262.9091,97.1748,7.2738e-06,6.62e-06,0.0,0 STARLINK-5857,1 55946U 23037AJ  23128.46067061  .00000662  00000-0  72738-5 0  9996,2 55946  70.0004  35.7325 0003138 262.9091  97.1748 15.69921192  8640,6737.259,91.724,361.239,357.01,0.0
55946.0,STARLINK-5857,PAYLOAD,2023-05-08 20:13:52,15.69920893,0.0003126,70.0006,34.6575,260.9081,99.1761,8.8657e-06,8.53e-06,0.0,0 STARLINK-5857,1 55946U 23037AJ  23128.84297053  .00000853  00000-0  88657-5 0  9993,2 55946  70.0006  34.6575 0003126 260.9081  99.1761 15.69920893  8364,6737.26,91.724,361.231,357.019,0.0
55946.0,STARLINK-5857,PAYLOAD,2023-05-09 03:52:37,15.69931874,0.0003295,69.9983,33.7589,258.7699,101.3127,5.4181e-06,4.39e-06,0.0,0 STARLINK-5857,1 55946U 23037AJ  23129.16154696  .00000439  00000-0  54181-5 0  9999,2 55946  69.9983  33.7589 0003295 258.7699 101.3127 15.69931874  8753,6737.229,91.724,361.314,356.874,0.0
55946.0,STARLINK-5857,PAYLOAD,2023-05-10 02:48:54,15.69934176,0.0003529,69.9983,31.0745,261.4012,98.6784,3.0223e-06,1.51e-06,0.0,0 STARLINK-5857,1 55946U 23037AJ  23130.11729780  .00000151  00000-0  30223-5 0  9990,2 55946  69.9983  31.0745 0003529 261.4012  98.6784 15.69934176  8562,6737.222,91.724,361.465,356.71,0.0
55946.0,STARLINK-5857,PAYLOAD,2023-05-10 18:06:26,15.69922207,0.0003415,69.9982,29.2832,260.8911,99.1899,1.5784e-05,1.685e-05,0.0,0 STARLINK-5857,1 55946U 23037AJ  23130.75447031  .00001685  00000-0  15784-4 0  9993,2 55946  69.9982  29.2832 0003415 260.8911  99.1899 15.69922207  9007,6737.257,91.724,361.422,356.821,0.0
55946.0,STARLINK-5857,PAYLOAD,2023-05-10 19:38:11,15.69923236,0.0003494,69.9986,29.1032,259.3053,100.7749,1.6274e-05,1.744e-05,0.0,0 STARLINK-5857,1 55946U 23037AJ  23130.81818637  .00001744  00000-0  16274-4 0  9995,2 55946  69.9986  29.1032 0003494 259.3053 100.7749 15.69923236  8677,6737.254,91.724,361.473,356.765,0.0
55946.0,STARLINK-5857,PAYLOAD,2023-05-11 03:16:56,15.69929324,0.0003559,69.9996,28.2072,270.3863,89.6925,1.5825e-05,1.691e-05,0.0,0 STARLINK-5857,1 55946U 23037AJ  23131.13676673  .00001691  00000-0  15825-4 0  9995,2 55946  69.9996  28.2072 0003559 270.3863  89.6925 15.69929324  8727,6737.236,91.724,361.499,356.703,0.0
55946.0,STARLINK-5857,PAYLOAD,2023-05-12 02:13:14,15.69920143,0.0003427,69.9982,25.5219,264.3207,95.7598,-1.7897e-06,-4.28e-06,0.0,0 STARLINK-5857,1 55946U 23037AJ  23132.09252575 -.00000428  00000-0 -17897-5 0  9993,2 55946  69.9982  25.5219 0003427 264.3207  95.7598 15.69920143  8874,6737.262,91.724,361.436,356.819,0.0
55946.0,STARLINK-5857,PAYLOAD,2023-05-12 19:02:30,15.69926527,0.0003443,69.9992,23.551,262.3324,97.7481,-1.795e-06,-4.29e-06,0.0,0 STARLINK-5857,1 55946U 23037AJ  23132.79340707 -.00000429  00000-0 -17950-5 0  9996,2 55946  69.9992  23.5510 0003443 262.3324  97.7481 15.69926527  9329,6737.244,91.724,361.429,356.79,0.0
55946.0,STARLINK-5857,PAYLOAD,2023-05-13 02:41:15,15.6993225,0.0002981,69.9987,22.6556,268.0946,91.9908,1.4574e-06,-3.7e-07,0.0,0 STARLINK-5857,1 55946U 23037AJ  23133.11198618 -.00000037  00000-0  14574-5 0  9998,2 55946  69.9987  22.6556 0002981 268.0946  91.9908 15.69932250  9030,6737.228,91.724,361.101,357.084,0.0
55946.0,STARLINK-5857,PAYLOAD,2023-05-13 19:30:32,15.69924201,0.0003314,69.9999,20.6854,260.5048,99.5774,-1.7718e-05,-2.343e-05,0.0,0 STARLINK-5857,1 55946U 23037AJ  23133.81288186 -.00002343  00000-0 -17718-4 0  9990,2 55946  69.9999  20.6854 0003314 260.5048  99.5774 15.69924201  9484,6737.251,91.724,361.349,356.883,0.0
55946.0,STARLINK-5857,PAYLOAD,2023-05-14 00:05:47,15.6993815,0.0003414,69.9989,20.1474,264.0605,96.0202,-6.3893e-07,-2.9e-06,0.0,0 STARLINK-5857,1 55946U 23037AJ  23134.00402030 -.00000290  00000-0 -63893-6 0  9994,2 55946  69.9989  20.1474 0003414 264.0605  96.0202 15.69938150  9515,6737.211,91.723,361.376,356.776,0.0
55946.0,STARLINK-5857,PAYLOAD,2023-05-14 19:58:35,15.69905268,0.0003262,70.0008,17.8195,264.9935,95.0888,-6.5773e-06,-1.003e-05,0.0,0 STARLINK-5857,1 55946U 23037AJ  23134.83235740 -.00001003  00000-0 -65773-5 0  9998,2 55946  70.0008  17.8195 0003262 264.9935  95.0888 15.69905268  9646,6737.305,91.725,361.368,356.972,0.0
55946.0,STARLINK-5857,PAYLOAD,2023-05-15 02:05:34,15.69925579,0.0003544,69.9996,17.1011,274.3718,85.7072,1.1699e-05,1.194e-05,0.0,0 STARLINK-5857,1 55946U 23037AJ  23135.08720899  .00001194  00000-0  11699-4 0  9996,2 55946  69.9996  17.1011 0003544 274.3718  85.7072 15.69925579  9688,6737.247,91.724,361.5,356.724,0.0
55946.0,STARLINK-5857,PAYLOAD,2023-05-15 09:44:20,15.69926496,0.0003107,69.9997,16.2057,267.6377,92.4463,1.5906e-05,1.7e-05,0.0,0 STARLINK-5857,1 55946U 23037AJ  23135.40579020  .00001700  00000-0  15906-4 0  9998,2 55946  69.9997  16.2057 0003107 267.6377  92.4463 15.69926496  9396,6737.244,91.724,361.203,357.016,0.0
55946.0,STARLINK-5857,PAYLOAD,2023-05-15 17:23:06,15.69925006,0.0002947,69.999,15.3099,255.7657,104.3212,6.7398e-06,5.98e-06,0.0,0 STARLINK-5857,1 55946U 23037AJ  23135.72437864  .00000598  00000-0  67398-5 0  9999,2 55946  69.9990  15.3099 0002947 255.7657 104.3212 15.69925006  9442,6737.249,91.724,361.099,357.128,0.0
55946.0,STARLINK-5857,PAYLOAD,2023-05-16 01:01:52,15.69923709,0.0003092,69.9989,14.4141,255.9685,104.1167,1.0526e-06,-8.6e-07,0.0,0 STARLINK-5857,1 55946U 23037AJ  23136.04296399 -.00000086  00000-0  10526-5 0  9995,2 55946  69.9989  14.4141 0003092 255.9685 104.1167 15.69923709  9831,6737.252,91.724,361.2,357.034,0.0
55946.0,STARLINK-5857,PAYLOAD,2023-05-16 14:47:38,15.69915708,0.0003206,69.9999,12.8024,253.178,106.9064,2.1707e-05,2.397e-05,0.0,0 STARLINK-5857,1 55946U 23037AJ  23136.61641342  .00002397  00000-0  21707-4 0  9998,2 55946  69.9999  12.8024 0003206 253.1780 106.9064 15.69915708  9585,6737.275,91.725,361.3,356.98,0.0
55946.0,STARLINK-5857,PAYLOAD,2023-05-16 22:26:23,15.69919776,0.0002947,69.9997,11.9064,254.0878,105.9993,2.5778e-05,2.887e-05,0.0,0 STARLINK-5857,1 55946U 23037AJ  23136.93499547  .00002887  00000-0  25778-4 0  9997,2 55946  69.9997  11.9064 0002947 254.0878 105.9993 15.69919776  9631,6737.264,91.724,361.114,357.143,0.0
55946.0,STARLINK-5857,PAYLOAD,2023-05-17 01:29:55,15.69904708,0.0002798,70.0005,11.549,249.4909,110.5986,7.4489e-06,6.83e-06,0.0,0 STARLINK-5857,1 55946U 23037AJ  23137.06244260  .00000683  00000-0  74489-5 0  9998,2 55946  70.0005  11.5490 0002798 249.4909 110.5986 15.69904708  9992,6737.307,91.725,361.057,357.287,0.0
55946.0,STARLINK-5857,PAYLOAD,2023-05-17 04:33:24,15.69915456,0.0003441,69.9989,11.1896,275.4608,84.6195,1.4434e-05,1.522e-05,0.0,0 STARLINK-5857,1 55946U 23037AJ  23137.18986877  .00001522  00000-0  14434-4 0  9994,2 55946  69.9989  11.1896 0003441 275.4608  84.6195 15.69915456 10017,6737.276,91.725,361.459,356.823,0.0
55946.0,STARLINK-5857,PAYLOAD,2023-05-17 18:19:06,15.69967854,0.0003541,69.9995,9.5778,256.2318,103.8483,6.2458e-05,7.317e-05,0.0,0 STARLINK-5857,1 55946U 23037AJ  23137.76327245  .00007317  00000-0  62458-4 0  9993,2 55946  69.9995   9.5778 0003541 256.2318 103.8483 15.69967854 10103,6737.126,91.722,361.377,356.605,0.0
55946.0,STARLINK-5857,PAYLOAD,2023-05-18 01:57:52,15.69962068,0.0003437,69.9996,8.6842,256.368,103.7133,5.7247e-05,6.687e-05,0.0,0 STARLINK-5857,1 55946U 23037AJ  23138.08185426  .00006687  00000-0  57247-4 0  9991,2 55946  69.9996   8.6842 0003437 256.3680 103.7133 15.69962068 10151,6737.143,91.722,361.323,356.692,0.0
55946.0,STARLINK-5857,PAYLOAD,2023-05-18 14:11:56,15.69918145,0.0003127,69.9983,7.2455,269.1573,90.9264,-1.2745e-05,-1.744e-05,0.0,0 STARLINK-5857,1 55946U 23037AJ  23138.59163016 -.00001744  00000-0 -12745-4 0  9993,2 55946  69.9983   7.2455 0003127 269.1573  90.9264 15.69918145  9899,6737.268,91.725,361.24,357.026,0.0
55946.0,STARLINK-5857,PAYLOAD,2023-05-18 15:43:42,15.6990917,0.0003799,69.9967,7.0695,263.6975,96.3788,-1.6176e-05,-2.157e-05,0.0,0 STARLINK-5857,1 55946U 23037AJ  23138.65535117 -.00002157  00000-0 -16176-4 0  9996,2 55946  69.9967   7.0695 0003799 263.6975  96.3788 15.69909170 10245,6737.294,91.725,361.718,356.599,0.0
